C/2021 V1 (Rankin),e,71.4540,207.6538,195.1216,607.0625,0.0000659,0.99503569,0.0000,04/30.4118/2022,2000,g 13.0,4.0
# From MPEC 2023-A16
P/2021 V2 (Fuls),e,12.6942,232.2842,259.8270,9.055608,0.0361683,0.61387345,359.5152,01/08.0/2023,2000,g 10.0,4.0
# From MPEC 2023-A16
C/2021 X1 (Maury-Attard),e,140.1213,10.5850,334.6288,11590049,0.0000000,0.99999972,0.0000,05/27.4843/2023,2000,g  7.0,4.0
# From MPEC 2023-A16
A/2021 X2,h,07/08.1084/2022,137.1594,228.8156,193.2853,1.001274,2.994364,2000,16.0,2.0
# From MPEC 2023-A16
C/2021 Y1 (ATLAS),h,04/30.6982/2023,77.1896,244.7698,245.8132,1.000870,2.032435,2000,7.0,4.0
# From MPEC 2022-YN2
C/2022 A1 (Sarneczky),e,116.5051,285.5278,201.2227,356.1731,0.0001466,0.99648249,0.0000,01/31.1575/2022,2000,g 18.0,4.0
# From MPEC 2023-A16
C/2022 A2 (PANSTARRS),h,02/18.2648/2023,108.1472,171.5797,88.3661,1.000345,1.735284,2000,9.5,4.0
# From MPEC 2023-A16
C/2022 A3 (Lemmon-ATLAS),e,88.3500,325.4836,234.8473,934.2963,0.0000345,0.99603613,0.0000,09/28.8404/2023,2000,g  8.0,4.0
# From MPEC 2022-K19
P/2022 B1 (Wierzchos),e,10.9903,148.8469,325.4739,5.465892,0.0771281,0.65304249,24.4233,01/08.0/2023,2000,g 16.5,4.0
# From MPEC 2022-YB4
A/2022 B3,e,132.0519,286.1833,150.6844,906.0839,0.0000361,0.99591827,0.0000,01/17.5599/2022,2000,g 16.5,2.0
# From MPEC 2022-GA9
C/2022 B4 (Bok),e,20.0437,340.6561,152.9406,381.7698,0.0001321,0.99638736,0.0000,01/29.8917/2022,2000,g 21.0,4.0
# From MPEC 2022-H04
P/2022 C1 (PANSTARRS),e,4.7616,113.1390,9.3609,7.219802,0.0508061,0.44803133,21.8221,01/08.0/2023,2000,g 12.0,4.0
# From MPEC 2022-OB6
P/2022 C2 (PANSTARRS),e,9.9799,135.2678,89.2930,6.044077,0.0663299,0.44236826,10.2467,01/08.0/2023,2000,g 12.5,4.0
# From MPEC 2022-OB6
P/2022 C3 (PANSTARRS),e,12.8163,139.0538,93.9354,9.642325,0.0329178,0.54632785,6.2820,01/08.0/2023,2000,g 11.5,4.0
# From MPEC 2022-K19
P/2022 D1 (PANSTARRS),e,44.0719,47.9586,88.6925,7.401624,0.0489456,0.54713987,24.3744,01/08.0/2023,2000,g 12.5,4.0
# From MPEC 2022-K19
C/2022 D2 (Kowalski),e,22.6542,312.4615,177.7860,366.5496,0.0001404,0.99575806,0.0000,03/27.5710/2022,2000,g 17.0,4.0
# From MPEC 2022-L66
P/2022 E1 (Christensen),e,19.0051,113.3444,115.0790,3.780838,0.1340670,0.22098723,28.3534,01/08.0/2023,2000,g 13.5,4.0
# From MPEC 2023-A16
C/2022 E2 (ATLAS),h,09/13.9480/2024,137.1383,125.3617,41.6760,1.001114,3.667247,2000,5.0,4.0
# From MPEC 2023-A16
C/2022 E3 (ZTF),h,01/12.7831/2023,109.1686,302.5550,145.8152,1.000328,1.112222,2000,7.5,4.0
# From MPEC 2022-WD2
C/2022 F1 (ATLAS),e,57.9721,350.6568,278.2728,15808,0.0000005,0.99962206,0.0000,08/05.1982/2022,2000,g  7.0,4.0
# From MPEC 2022-QD9
C/2022 F2 (NEOWISE),e,97.2930,58.6977,200.6258,23.87282,0.0084498,0.93360548,2.4552,01/08.0/2023,2000,g 14.5,4.0
# From MPEC 2022-P82
C/2022 H1 (PANSTARRS),e,49.8713,6.3683,246.2650,999.6421,0.0000312,0.99230429,0.0000,01/18.8844/2024,2000,g  6.0,4.0
# From MPEC 2022-VC5
C/2022 J1 (Maury-Attard),e,105.9346,280.7269,305.6652,47.62758,0.0029986,0.96631465,0.9684,01/08.0/2023,2000,g 14.9,4.0
# From MPEC 2022-YN2
C/2022 J2 (Bok),e,149.0923,252.5590,133.0685,91.92049,0.0011184,0.98011787,0.0000,10/27.0690/2022,2000,g 15.5,4.0
# From MPEC 2022-ST7
C/2022 K1 (Leonard),h,12/17.5154/2021,41.9696,136.2916,142.6750,1.002890,3.987746,2000,11.0,4.0
# From MPEC 2022-YN2
C/2022 L1 (Catalina),e,123.4681,300.0263,59.8580,533.5493,0.0000800,0.99701718,0.0000,09/28.2549/2022,2000,g 15.8,4.0
# From MPEC 2022-Y15
C/2022 L2 (ATLAS),h,03/12.3534/2024,129.3132,39.2428,199.9540,1.001242,2.691914,2000,6.5,4.0
# From MPEC 2022-YN2
P/2022 L3 (ATLAS),e,21.5430,29.8052,10.3273,6.504294,0.0594161,0.62796079,4.1618,01/08.0/2023,2000,g 16.5,4.0
# From MPEC 2022-N37
C/2022 L4 (PANSTARRS),e,141.2330,66.0511,125.3268,275.3085,0.0002158,0.98904840,0.0000,12/08.7594/2021,2000,g 14.0,4.0
# From MPEC 2022-WD2
P/2022 M1 (LONEOS-PANSTARRS),e,7.0247,322.9035,4.4594,4.892175,0.0910859,0.57868470,14.4528,01/08.0/2023,2000,g 17.0,4.0
# From MPEC 2022-VC5
C/2022 N1 (Attard-Maury),e,164.7408,301.8602,41.0764,37.03810,0.0043725,0.95999277,0.5245,01/08.0/2023,2000,g 16.9,4.0
# From MPEC 2022-QD9
C/2022 N2 (PANSTARRS),h,07/31.3989/2025,5.5023,319.7367,75.3507,1.004239,3.825914,2000,6.0,4.0
# From MPEC 2022-YN2
C/2022 O1 (ATLAS),h,02/15.5715/2022,71.0437,49.9122,268.8866,1.004653,7.430200,2000,6.0,4.0
# From MPEC 2022-YN2
P/2022 O2 (PANSTARRS),e,9.4246,330.4970,48.6356,6.314429,0.0621159,0.72177453,0.0563,01/08.0/2023,2000,g 16.0,4.0
# From MPEC 2022-WQ9
C/2022 P1 (NEOWISE),e,154.6067,205.0820,249.9373,18.40956,0.0124778,0.91335045,0.5056,01/08.0/2023,2000,g 13.0,4.0
# From MPEC 2022-YB4
P/2022 P2 (ZTF),e,12.4426,291.2315,137.6116,4.487443,0.1036825,0.55820955,18.7837,01/08.0/2023,2000,g 12.5,4.0
# From MPEC 2023-A16
C/2022 P3 (ZTF),e,59.5180,72.2340,0.0944,244.1791,0.0002583,0.98951046,0.0000,07/27.3479/2022,2000,g 12.0,4.0
# From MPEC 2023-A16
C/2022 Q2 (ATLAS),e,151.4853,352.9438,44.0667,32.63605,0.0052864,0.94962390,359.8752,01/08.0/2023,2000,g 13.0,4.0
# From MPEC 2023-A16
C/2022 QE78 (ATLAS),h,09/10.3953/2025,36.5493,119.9393,0.3427,1.002563,5.483400,2000,5.0,4.0
# From MPEC 2022-WD2
P/2022 R1 (PANSTARRS),e,7.4080,176.1753,222.5806,7.192218,0.0510987,0.50371990,345.8488,01/08.0/2023,2000,g 11.5,4.0
# From MPEC 2022-Y15
C/2022 R2 (ATLAS),e,52.8954,60.4032,78.3768,421.0903,0.0001141,0.99849776,0.0000,10/25.2198/2022,2000,g 17.0,4.0
# From MPEC 2022-YN2
C/2022 R3 (Leonard),h,03/05.0173/2023,43.0826,8.2374,72.8327,1.000497,5.129008,2000,9.0,4.0
# From MPEC 2022-X67
P/2022 R4 (PANSTARRS),e,21.0217,176.6235,197.4272,3.836239,0.1311734,0.49023438,23.8258,01/08.0/2023,2000,g 16.5,4.0
# From MPEC 2022-WQ9
P/2022 R5 (PANSTARRS),e,15.2928,115.0571,240.6365,3.069945,0.1832349,0.19560453,41.2899,01/08.0/2023,2000,g 16.0,4.0
# From MPEC 2022-YN2
C/2022 R6 (PANSTARRS),h,08/25.7846/2025,57.0201,150.7552,319.8688,1.003306,6.567763,2000,5.0,4.0
# From MPEC 2022-Y15
P/2022 S1 (PANSTARRS),e,34.5820,136.0923,262.7344,6.409329,0.0607415,0.50831510,8.6214,01/08.0/2023,2000,g 13.0,4.0
# From MPEC 2022-VC5
C/2022 S3 (PANSTARRS),h,01/21.6835/2023,78.5530,157.3229,267.9633,1.000355,0.838390,2000,17.0,4.0
# From MPEC 2022-YN2
C/2022 S4 (Lemmon),h,07/18.0886/2024,101.0334,220.1555,268.3481,1.000534,2.766767,2000,8.0,4.0
# From MPEC 2023-A16
C/2022 S5 (PANSTARRS),e,136.5327,214.8589,232.7745,20.40991,0.0106891,0.89324892,0.4441,01/08.0/2023,2000,g 15.0,4.0
# From MPEC 2022-YN2
A/2022 T1,e,22.5425,236.9194,324.3542,4789,0.0000030,0.99928101,0.0000,02/17.6309/2024,2000,g 12.0,2.0
# From MPEC 2022-YN2
C/2022 U1 (Leonard),e,128.1272,72.5024,78.5119,8910,0.0000012,0.99952826,0.0000,03/25.5463/2024,2000,g  8.5,4.0
# From MPEC 2023-A16
C/2022 U2 (ATLAS),e,48.2504,304.4758,147.9083,95.94817,0.0010487,0.98615881,0.0000,01/14.2203/2023,2000,g 16.0,4.0
# From MPEC 2022-YN2
C/2022 U3 (Bok),h,07/27.6108/2024,33.6205,272.8094,188.9525,1.003083,4.829691,2000,7.5,4.0
# From MPEC 2022-YN2
C/2022 U4 (Bok),e,52.0375,132.9317,89.0100,3541,0.0000047,0.99918154,0.0000,08/03.6941/2023,2000,g 10.5,4.0
# From MPEC 2022-Y15
P/2022 U5 (PANSTARRS),e,19.8126,54.5886,19.9907,4.205093,0.1142986,0.36131958,18.9754,01/08.0/2023,2000,g 14.0,4.0
# From MPEC 2023-A16
P/2022 V1 (WISE-Lemmon),e,27.0688,42.8987,70.8214,5.457492,0.0773062,0.58249089,355.8244,01/08.0/2023,2000,g 14.0,4.0
# From MPEC 2023-A16
P/2022 W1 (Rankin),e,13.4659,38.8158,17.7790,6.967673,0.0535886,0.51666010,6.1260,01/08.0/2023,2000,g 12.5,4.0
# From  98, 1083
1P/Halley,e,162.1762,59.3690,112.2856,17.86971,0.0130475,0.96667643,175.6610,01/08.0/2023,2000,g  4.0,6.0
# From MPEC 2022-Y15
2P/Encke,e,11.3632,334.1022,187.2149,2.219594,0.2980533,0.84725766,274.3334,01/08.0/2023,2000,g 11.5,6.0
# From MPEC 2022-WD2
4P/Faye,e,8.0092,192.9239,207.0433,3.826332,0.1316831,0.57682328,64.0070,01/08.0/2023,2000,g  8.0,6.0
# From MPEC 2022-WD2
6P/d'Arrest,e,19.5111,138.9374,178.0901,3.497008,0.1507159,0.61251883,71.9383,01/08.0/2023,2000,g  7.5,16.0
# From MPEC 2023-A16
7P/Pons-Winnecke,e,22.3714,93.3308,172.5480,3.410165,0.1565096,0.63851473,92.4977,01/08.0/2023,2000,g 10.0,6.0
# From MPEC 2022-HC2
8P/Tuttle,e,54.9284,270.1936,207.4739,5.703613,0.0723567,0.82018632,36.0531,01/08.0/2023,2000,g  8.0,8.0
# From MPEC 2023-A16
9P/Tempel,e,10.4714,68.6681,179.4757,3.149721,0.1763177,0.50952609,54.4620,01/08.0/2023,2000,g  5.5,10.0
# From MPEC 2022-YN2
10P/Tempel,e,12.0363,117.8144,195.5228,3.061520,0.1839917,0.53817565,120.4926,01/08.0/2023,2000,g  5.0,10.0
# From MPEC 2022-K19
11P/Tempel-Swift-LINEAR,e,14.4279,238.8745,167.9875,3.283840,0.1656270,0.57744556,127.9385,01/08.0/2023,2000,g 17.0,4.0
# From MPEC 2022-UE6
12P/Pons-Brooks,e,74.1819,255.8373,198.9769,17.19631,0.0138214,0.95456931,353.5166,01/08.0/2023,2000,g  5.0,6.0
# From  27, 604
13P/Olbers,e,44.6190,85.9351,64.3837,16.82776,0.0142779,0.93017059,352.2915,01/08.0/2023,2000,g  5.0,6.0
# From MPEC 2021-F20
14P/Wolf,e,27.9274,202.0404,159.1044,4.257960,0.1121764,0.35719567,208.6923,01/08.0/2023,2000,g  5.5,12.0
# From MPEC 2022-ED3
15P/Finlay,e,6.7980,13.7089,347.8686,3.508118,0.1500005,0.71702542,81.5244,01/08.0/2023,2000,g 12.0,4.0
# From MPEC 2022-X67
16P/Brooks,e,3.0114,138.8686,245.2483,3.658825,0.1408289,0.48643861,88.6605,01/08.0/2023,2000,g  7.5,10.0
# From MPEC 2022-Y15
17P/Holmes,e,19.0287,326.6270,24.5581,3.637808,0.1420510,0.42750501,97.5954,01/08.0/2023,2000,g 10.0,6.0
# From MPEC 2022-Y15
19P/Borrelly,e,29.3052,74.2354,351.9353,3.606440,0.1439084,0.63779516,48.9497,01/08.0/2023,2000,g  4.5,10.0
# From MPEC 2021-F20
21P/Giacobini-Zinner,e,32.0591,195.3453,172.8897,3.494843,0.1508560,0.71125621,238.2034,01/08.0/2023,2000,g 11.4,4.0
# From MPEC 2023-A16
22P/Kopff,e,4.7412,120.7904,163.0243,3.441746,0.1543604,0.54926615,45.6659,01/08.0/2023,2000,g  3.0,10.4
# From MPC 14747
23P/Brorsen-Metcalf,e,19.2261,312.0613,129.1296,16.94350,0.0141319,0.97206124,0.0000,08/09.0688/1989,2000,g 10.0,6.0
# From MPC110085
24P/Schaumasse,e,11.5048,78.3439,58.4374,4.055116,0.1206977,0.70770654,227.6021,01/08.0/2023,2000,g  6.5,14.0
